IRIDIUM 33 DEB          
1 38033U 97051YV  17345.32782334  .00003580  00000-0  41291-3 0  9997
2 38033  86.2749 117.1032 0022327  92.6081 267.7699 14.85200788823958
